CORAL                   
1 67685U 98067YB  26062.41239131  .00045363  00000+0  75392-3 0  9991
2 67685  51.6313 102.9911 0011498 160.9384 199.2038 15.51543478  3817
ISS OBJECT YC           
1 67686U 98067YC  26062.40877039  .00051568  00000+0  84429-3 0  9991
2 67686  51.6308 102.9692 0007753 129.1230 231.0450 15.51946136  3815
LEOPARD                 
1 67687U 98067YD  26062.41381875  .00042870  00000+0  71815-3 0  9992
2 67687  51.6311 103.0024 0007736 132.4796 227.6848 15.51386771  3732
ISS OBJECT YE           
1 67688U 98067YE  26062.41037585  .00049325  00000+0  81368-3 0  9995
2 67688  51.6313 102.9800 0007700 129.5648 230.6023 15.51755615  3735
PRC TEST SPACECRAFT 4   
1 67689U 26024A   26062.46422315  .00000191  00000+0  42845-4 0  9990
2 67689  49.9858  51.9952 0006119 336.1975  23.8683 14.91682393  3653
CZ-2F R/B               
1 67690U 26024B   26062.45030609  .00020358  00000+0  37440-3 0  9993
2 67690  49.9872  45.8856 0175086 249.0261 109.1887 15.34042424  3732
CZ-2F DEB               
1 67691U 26024C   26062.41541211  .01128149  10880-4  76859-3 0  9993
2 67691  49.9037  38.5059 0162600 262.7139  95.5337 15.93440052  3815
CZ-2F DEB               
1 67692U 26024D   26062.44721183  .00235585  00000+0  42582-2 0  9990
2 67692  50.3178  49.3193 0240936 255.4964 101.9157 15.22662395  3675
STARLINK-36748          
1 67693U 26025A   26062.25269733  .00436202  00000+0  27604-2 0  9996
2 67693  97.2843 173.4669 0001418 136.4950 223.6427 15.75341547  4927
STARLINK-36753          
1 67694U 26025B   26062.24493186  .00471886  00000+0  29693-2 0  9994
2 67694  97.2846 173.4766 0001295 146.7392 213.3955 15.75374340  4936
STARLINK-36750          
1 67695U 26025C   26062.28625095  .00236378  00000+0  11959-2 0  9996
2 67695  97.2842 173.5752 0001047  89.5564 270.5824 15.80921069  4931
STARLINK-36401          
1 67696U 26025D   26062.50001156 -.00076795  00000+0 -51798-3 0  9991
2 67696  97.2850 173.7791 0000907  78.0464   5.5617 15.75219869  4862
