CCSDS_OMM_VERS = 2.0
CREATION_DATE  = 
ORIGINATOR     = 

OBJECT_NAME    = CORAL
OBJECT_ID      = 1998-067YB
CENTER_NAME    = EARTH
REF_FRAME      = TEME
TIME_SYSTEM    = UTC
MEAN_ELEMENT_THEORY = SGP/SGP4

EPOCH          = 2026-03-03T09:53:50.609184
MEAN_MOTION    = 15.51543478
ECCENTRICITY   = .0011498
INCLINATION    = 51.6313
RA_OF_ASC_NODE = 102.9911
ARG_OF_PERICENTER = 160.9384
MEAN_ANOMALY   = 199.2038

EPHEMERIS_TYPE = 0
CLASSIFICATION_TYPE = U
NORAD_CAT_ID   = 67685
ELEMENT_SET_NO = 999
REV_AT_EPOCH   = 381
BSTAR          = .75392E-3
MEAN_MOTION_DOT = .45363E-3
MEAN_MOTION_DDOT = 0

CCSDS_OMM_VERS = 2.0
CREATION_DATE  = 
ORIGINATOR     = 

OBJECT_NAME    = ISS OBJECT YC
OBJECT_ID      = 1998-067YC
CENTER_NAME    = EARTH
REF_FRAME      = TEME
TIME_SYSTEM    = UTC
MEAN_ELEMENT_THEORY = SGP/SGP4

EPOCH          = 2026-03-03T09:48:37.761696
MEAN_MOTION    = 15.51946136
ECCENTRICITY   = .0007753
INCLINATION    = 51.6308
RA_OF_ASC_NODE = 102.9692
ARG_OF_PERICENTER = 129.1230
MEAN_ANOMALY   = 231.0450

EPHEMERIS_TYPE = 0
CLASSIFICATION_TYPE = U
NORAD_CAT_ID   = 67686
ELEMENT_SET_NO = 999
REV_AT_EPOCH   = 381
BSTAR          = .84429E-3
MEAN_MOTION_DOT = .51568E-3
MEAN_MOTION_DDOT = 0

CCSDS_OMM_VERS = 2.0
CREATION_DATE  = 
ORIGINATOR     = 

OBJECT_NAME    = LEOPARD
OBJECT_ID      = 1998-067YD
CENTER_NAME    = EARTH
REF_FRAME      = TEME
TIME_SYSTEM    = UTC
MEAN_ELEMENT_THEORY = SGP/SGP4

EPOCH          = 2026-03-03T09:55:53.940000
MEAN_MOTION    = 15.51386771
ECCENTRICITY   = .0007736
INCLINATION    = 51.6311
RA_OF_ASC_NODE = 103.0024
ARG_OF_PERICENTER = 132.4796
MEAN_ANOMALY   = 227.6848

EPHEMERIS_TYPE = 0
CLASSIFICATION_TYPE = U
NORAD_CAT_ID   = 67687
ELEMENT_SET_NO = 999
REV_AT_EPOCH   = 373
BSTAR          = .71815E-3
MEAN_MOTION_DOT = .4287E-3
MEAN_MOTION_DDOT = 0

CCSDS_OMM_VERS = 2.0
CREATION_DATE  = 
ORIGINATOR     = 

OBJECT_NAME    = ISS OBJECT YE
OBJECT_ID      = 1998-067YE
CENTER_NAME    = EARTH
REF_FRAME      = TEME
TIME_SYSTEM    = UTC
MEAN_ELEMENT_THEORY = SGP/SGP4

EPOCH          = 2026-03-03T09:50:56.473440
MEAN_MOTION    = 15.51755615
ECCENTRICITY   = .00077
INCLINATION    = 51.6313
RA_OF_ASC_NODE = 102.9800
ARG_OF_PERICENTER = 129.5648
MEAN_ANOMALY   = 230.6023

EPHEMERIS_TYPE = 0
CLASSIFICATION_TYPE = U
NORAD_CAT_ID   = 67688
ELEMENT_SET_NO = 999
REV_AT_EPOCH   = 373
BSTAR          = .81368E-3
MEAN_MOTION_DOT = .49325E-3
MEAN_MOTION_DDOT = 0

CCSDS_OMM_VERS = 2.0
CREATION_DATE  = 
ORIGINATOR     = 

OBJECT_NAME    = PRC TEST SPACECRAFT 4
OBJECT_ID      = 2026-024A
CENTER_NAME    = EARTH
REF_FRAME      = TEME
TIME_SYSTEM    = UTC
MEAN_ELEMENT_THEORY = SGP/SGP4

EPOCH          = 2026-03-03T11:08:28.880160
MEAN_MOTION    = 14.91682393
ECCENTRICITY   = .0006119
INCLINATION    = 49.9858
RA_OF_ASC_NODE = 51.9952
ARG_OF_PERICENTER = 336.1975
MEAN_ANOMALY   = 23.8683

EPHEMERIS_TYPE = 0
CLASSIFICATION_TYPE = U
NORAD_CAT_ID   = 67689
ELEMENT_SET_NO = 999
REV_AT_EPOCH   = 365
BSTAR          = .42845E-4
MEAN_MOTION_DOT = .191E-5
MEAN_MOTION_DDOT = 0

CCSDS_OMM_VERS = 2.0
CREATION_DATE  = 
ORIGINATOR     = 

OBJECT_NAME    = CZ-2F R/B
OBJECT_ID      = 2026-024B
CENTER_NAME    = EARTH
REF_FRAME      = TEME
TIME_SYSTEM    = UTC
MEAN_ELEMENT_THEORY = SGP/SGP4

EPOCH          = 2026-03-03T10:48:26.446176
MEAN_MOTION    = 15.34042424
ECCENTRICITY   = .0175086
INCLINATION    = 49.9872
RA_OF_ASC_NODE = 45.8856
ARG_OF_PERICENTER = 249.0261
MEAN_ANOMALY   = 109.1887

EPHEMERIS_TYPE = 0
CLASSIFICATION_TYPE = U
NORAD_CAT_ID   = 67690
ELEMENT_SET_NO = 999
REV_AT_EPOCH   = 373
BSTAR          = .3744E-3
MEAN_MOTION_DOT = .20358E-3
MEAN_MOTION_DDOT = 0

CCSDS_OMM_VERS = 2.0
CREATION_DATE  = 
ORIGINATOR     = 

OBJECT_NAME    = CZ-2F DEB
OBJECT_ID      = 2026-024C
CENTER_NAME    = EARTH
REF_FRAME      = TEME
TIME_SYSTEM    = UTC
MEAN_ELEMENT_THEORY = SGP/SGP4

EPOCH          = 2026-03-03T09:58:11.606304
MEAN_MOTION    = 15.93440052
ECCENTRICITY   = .01626
INCLINATION    = 49.9037
RA_OF_ASC_NODE = 38.5059
ARG_OF_PERICENTER = 262.7139
MEAN_ANOMALY   = 95.5337

EPHEMERIS_TYPE = 0
CLASSIFICATION_TYPE = U
NORAD_CAT_ID   = 67691
ELEMENT_SET_NO = 999
REV_AT_EPOCH   = 381
BSTAR          = .76859E-3
MEAN_MOTION_DOT = .1128149E-1
MEAN_MOTION_DDOT = .1088E-4

CCSDS_OMM_VERS = 2.0
CREATION_DATE  = 
ORIGINATOR     = 

OBJECT_NAME    = CZ-2F DEB
OBJECT_ID      = 2026-024D
CENTER_NAME    = EARTH
REF_FRAME      = TEME
TIME_SYSTEM    = UTC
MEAN_ELEMENT_THEORY = SGP/SGP4

EPOCH          = 2026-03-03T10:43:59.102112
MEAN_MOTION    = 15.22662395
ECCENTRICITY   = .0240936
INCLINATION    = 50.3178
RA_OF_ASC_NODE = 49.3193
ARG_OF_PERICENTER = 255.4964
MEAN_ANOMALY   = 101.9157

EPHEMERIS_TYPE = 0
CLASSIFICATION_TYPE = U
NORAD_CAT_ID   = 67692
ELEMENT_SET_NO = 999
REV_AT_EPOCH   = 367
BSTAR          = .42582E-2
MEAN_MOTION_DOT = .235585E-2
MEAN_MOTION_DDOT = 0

CCSDS_OMM_VERS = 2.0
CREATION_DATE  = 
ORIGINATOR     = 

OBJECT_NAME    = STARLINK-36748
OBJECT_ID      = 2026-025A
CENTER_NAME    = EARTH
REF_FRAME      = TEME
TIME_SYSTEM    = UTC
MEAN_ELEMENT_THEORY = SGP/SGP4

EPOCH          = 2026-03-03T06:03:53.049312
MEAN_MOTION    = 15.75341547
ECCENTRICITY   = .0001418
INCLINATION    = 97.2843
RA_OF_ASC_NODE = 173.4669
ARG_OF_PERICENTER = 136.4950
MEAN_ANOMALY   = 223.6427

EPHEMERIS_TYPE = 0
CLASSIFICATION_TYPE = U
NORAD_CAT_ID   = 67693
ELEMENT_SET_NO = 999
REV_AT_EPOCH   = 492
BSTAR          = .27604E-2
MEAN_MOTION_DOT = .436202E-2
MEAN_MOTION_DDOT = 0

CCSDS_OMM_VERS = 2.0
CREATION_DATE  = 
ORIGINATOR     = 

OBJECT_NAME    = STARLINK-36753
OBJECT_ID      = 2026-025B
CENTER_NAME    = EARTH
REF_FRAME      = TEME
TIME_SYSTEM    = UTC
MEAN_ELEMENT_THEORY = SGP/SGP4

EPOCH          = 2026-03-03T05:52:42.112704
MEAN_MOTION    = 15.75374340
ECCENTRICITY   = .0001295
INCLINATION    = 97.2846
RA_OF_ASC_NODE = 173.4766
ARG_OF_PERICENTER = 146.7392
MEAN_ANOMALY   = 213.3955

EPHEMERIS_TYPE = 0
CLASSIFICATION_TYPE = U
NORAD_CAT_ID   = 67694
ELEMENT_SET_NO = 999
REV_AT_EPOCH   = 493
BSTAR          = .29693E-2
MEAN_MOTION_DOT = .471886E-2
MEAN_MOTION_DDOT = 0

CCSDS_OMM_VERS = 2.0
CREATION_DATE  = 
ORIGINATOR     = 

OBJECT_NAME    = STARLINK-36750
OBJECT_ID      = 2026-025C
CENTER_NAME    = EARTH
REF_FRAME      = TEME
TIME_SYSTEM    = UTC
MEAN_ELEMENT_THEORY = SGP/SGP4

EPOCH          = 2026-03-03T06:52:12.082080
MEAN_MOTION    = 15.80921069
ECCENTRICITY   = .0001047
INCLINATION    = 97.2842
RA_OF_ASC_NODE = 173.5752
ARG_OF_PERICENTER = 89.5564
MEAN_ANOMALY   = 270.5824

EPHEMERIS_TYPE = 0
CLASSIFICATION_TYPE = U
NORAD_CAT_ID   = 67695
ELEMENT_SET_NO = 999
REV_AT_EPOCH   = 493
BSTAR          = .11959E-2
MEAN_MOTION_DOT = .236378E-2
MEAN_MOTION_DDOT = 0

CCSDS_OMM_VERS = 2.0
CREATION_DATE  = 
ORIGINATOR     = 

OBJECT_NAME    = STARLINK-36401
OBJECT_ID      = 2026-025D
CENTER_NAME    = EARTH
REF_FRAME      = TEME
TIME_SYSTEM    = UTC
MEAN_ELEMENT_THEORY = SGP/SGP4

EPOCH          = 2026-03-03T12:00:00.998784
MEAN_MOTION    = 15.75219869
ECCENTRICITY   = .0000907
INCLINATION    = 97.2850
RA_OF_ASC_NODE = 173.7791
ARG_OF_PERICENTER = 78.0464
MEAN_ANOMALY   = 5.5617

EPHEMERIS_TYPE = 0
CLASSIFICATION_TYPE = U
NORAD_CAT_ID   = 67696
ELEMENT_SET_NO = 999
REV_AT_EPOCH   = 486
BSTAR          = -.51798E-3
MEAN_MOTION_DOT = -.76795E-3
MEAN_MOTION_DDOT = 0

